{
  "type": "FeatureCollection",
  "features": [
    {
      "type": "Feature",
      "properties": {
        "norad_id": 36385,
        "name": "COSMOS 2251 DEB",
        "group": "cosmos-2251-debris",
        "lat": -55.20309760266177,
        "lon": 114.70949852431572,
        "alt_km": 561.2994504629114,
        "timestamp": "2025-12-20T14:38:02.366296+00:00",
        "meta_object_name": "COSMOS 2251 DEB",
        "meta_object_id": "1993-036AZN",
        "meta_epoch": "2025-12-19T09:32:49.978752",
        "meta_mean_motion": 14.72677643,
        "meta_eccentricity": 0.0141469,
        "meta_inclination": 73.9693,
        "meta_ra_of_asc_node": 141.5182,
        "meta_arg_of_pericenter": 314.4323,
        "meta_mean_anomaly": 44.534,
        "meta_ephemeris_type": 0,
        "meta_classification_type": "U",
        "meta_norad_cat_id": 36385,
        "meta_element_set_no": 999,
        "meta_rev_at_epoch": 85200,
        "meta_bstar": 0.00088509,
        "meta_mean_motion_dot": 6.582e-05,
        "meta_mean_motion_ddot": 0,
        "tle_line1": "1 36385U 93036AZN 25353.39780068  .00006582  00000+0  88509-3 0  9998",
        "tle_line2": "2 36385  73.9693 141.5182 0141469 314.4323  44.5340 14.72677643852003"
      },
      "geometry": {
        "type": "Point",
        "coordinates": [
          114.70949852431572,
          -55.20309760266177
        ]
      }
    },
    {
      "type": "Feature",
      "properties": {
        "norad_id": 36420,
        "name": "COSMOS 2251 DEB",
        "group": "cosmos-2251-debris",
        "lat": -58.04863807661675,
        "lon": -126.30131094332265,
        "alt_km": 766.8539213672129,
        "timestamp": "2025-12-20T14:38:02.366306+00:00",
        "meta_object_name": "COSMOS 2251 DEB",
        "meta_object_id": "1993-036AZT",
        "meta_epoch": "2025-12-16T13:10:06.446208",
        "meta_mean_motion": 14.36904576,
        "meta_eccentricity": 0.00182942,
        "meta_inclination": 74.0376,
        "meta_ra_of_asc_node": 268.4783,
        "meta_arg_of_pericenter": 355.3587,
        "meta_mean_anomaly": 184.0352,
        "meta_ephemeris_type": 0,
        "meta_classification_type": "U",
        "meta_norad_cat_id": 36420,
        "meta_element_set_no": 999,
        "meta_rev_at_epoch": 85091,
        "meta_bstar": 0.0001395606,
        "meta_mean_motion_dot": 3.87e-06,
        "meta_mean_motion_ddot": 0,
        "tle_line1": "1 36420U 93036AZT 25350.54868572  .00000387  00000+0  13956-3 0  9990",
        "tle_line2": "2 36420  74.0376 268.4783 0018294 355.3587 184.0352 14.36904576850913"
      },
      "geometry": {
        "type": "Point",
        "coordinates": [
          -126.30131094332265,
          -58.04863807661675
        ]
      }
    },
    {
      "type": "Feature",
      "properties": {
        "norad_id": 36430,
        "name": "COSMOS 2251 DEB",
        "group": "cosmos-2251-debris",
        "lat": 57.472938406013725,
        "lon": 120.97504093477109,
        "alt_km": 862.9921097516753,
        "timestamp": "2025-12-20T14:38:02.366317+00:00",
        "meta_object_name": "COSMOS 2251 DEB",
        "meta_object_id": "1993-036BAD",
        "meta_epoch": "2025-12-17T14:02:08.838528",
        "meta_mean_motion": 14.27804633,
        "meta_eccentricity": 0.00972961,
        "meta_inclination": 74.0048,
        "meta_ra_of_asc_node": 99.7344,
        "meta_arg_of_pericenter": 248.7934,
        "meta_mean_anomaly": 110.2799,
        "meta_ephemeris_type": 0,
        "meta_classification_type": "U",
        "meta_norad_cat_id": 36430,
        "meta_element_set_no": 999,
        "meta_rev_at_epoch": 64626,
        "meta_bstar": 0.00041842357,
        "meta_mean_motion_dot": 1.061e-05,
        "meta_mean_motion_ddot": 0,
        "tle_line1": "1 36430U 93036BAD 25351.58482452  .00001061  00000+0  41842-3 0  9990",
        "tle_line2": "2 36430  74.0048  99.7344 0097296 248.7934 110.2799 14.27804633646268"
      },
      "geometry": {
        "type": "Point",
        "coordinates": [
          120.97504093477109,
          57.472938406013725
        ]
      }
    },
    {
      "type": "Feature",
      "properties": {
        "norad_id": 36437,
        "name": "COSMOS 2251 DEB",
        "group": "cosmos-2251-debris",
        "lat": -21.89289118340943,
        "lon": -154.7166779873991,
        "alt_km": 652.2129100037555,
        "timestamp": "2025-12-20T14:38:02.366327+00:00",
        "meta_object_name": "COSMOS 2251 DEB",
        "meta_object_id": "1993-036BAL",
        "meta_epoch": "2025-12-17T10:37:14.678400",
        "meta_mean_motion": 14.70771964,
        "meta_eccentricity": 0.00232298,
        "meta_inclination": 73.9427,
        "meta_ra_of_asc_node": 24.8176,
        "meta_arg_of_pericenter": 256.1896,
        "meta_mean_anomaly": 103.669,
        "meta_ephemeris_type": 0,
        "meta_classification_type": "U",
        "meta_norad_cat_id": 36437,
        "meta_element_set_no": 999,
        "meta_rev_at_epoch": 66120,
        "meta_bstar": 0.001110469,
        "meta_mean_motion_dot": 6.78e-05,
        "meta_mean_motion_ddot": 0,
        "tle_line1": "1 36437U 93036BAL 25351.44253100  .00006780  00000+0  11105-2 0  9999",
        "tle_line2": "2 36437  73.9427  24.8176 0023229 256.1896 103.6690 14.70771964661206"
      },
      "geometry": {
        "type": "Point",
        "coordinates": [
          -154.7166779873991,
          -21.89289118340943
        ]
      }
    },
    {
      "type": "Feature",
      "properties": {
        "norad_id": 36439,
        "name": "COSMOS 2251 DEB",
        "group": "cosmos-2251-debris",
        "lat": -61.18993909211291,
        "lon": -124.32358807118383,
        "alt_km": 1177.3647974080695,
        "timestamp": "2025-12-20T14:38:02.366337+00:00",
        "meta_object_name": "COSMOS 2251 DEB",
        "meta_object_id": "1993-036BAN",
        "meta_epoch": "2025-12-16T11:25:24.463776",
        "meta_mean_motion": 13.47804354,
        "meta_eccentricity": 0.04280619,
        "meta_inclination": 73.9685,
        "meta_ra_of_asc_node": 30.7531,
        "meta_arg_of_pericenter": 1.8523,
        "meta_mean_anomaly": 358.4044,
        "meta_ephemeris_type": 0,
        "meta_classification_type": "U",
        "meta_norad_cat_id": 36439,
        "meta_element_set_no": 999,
        "meta_rev_at_epoch": 58663,
        "meta_bstar": 0.0011092098,
        "meta_mean_motion_dot": 1.175e-05,
        "meta_mean_motion_ddot": 0,
        "tle_line1": "1 36439U 93036BAN 25350.47597759  .00001175  00000+0  11092-2 0  9992",
        "tle_line2": "2 36439  73.9685  30.7531 0428061   1.8523 358.4044 13.47804354586639"
      },
      "geometry": {
        "type": "Point",
        "coordinates": [
          -124.32358807118383,
          -61.18993909211291
        ]
      }
    },
    {
      "type": "Feature",
      "properties": {
        "norad_id": 36441,
        "name": "COSMOS 2251 DEB",
        "group": "cosmos-2251-debris",
        "lat": -59.797250576068464,
        "lon": -176.72390618968885,
        "alt_km": 626.91544180453,
        "timestamp": "2025-12-20T14:38:02.366347+00:00",
        "meta_object_name": "COSMOS 2251 DEB",
        "meta_object_id": "1993-036BAQ",
        "meta_epoch": "2025-12-18T05:47:29.908032",
        "meta_mean_motion": 15.06846048,
        "meta_eccentricity": 0.01082047,
        "meta_inclination": 73.8354,
        "meta_ra_of_asc_node": 338.3111,
        "meta_arg_of_pericenter": 76.0854,
        "meta_mean_anomaly": 285.2342,
        "meta_ephemeris_type": 0,
        "meta_classification_type": "U",
        "meta_norad_cat_id": 36441,
        "meta_element_set_no": 999,
        "meta_rev_at_epoch": 87048,
        "meta_bstar": 0.0004365334,
        "meta_mean_motion_dot": 7.404e-05,
        "meta_mean_motion_ddot": 0,
        "tle_line1": "1 36441U 93036BAQ 25352.24131838  .00007404  00000+0  43653-3 0  9994",
        "tle_line2": "2 36441  73.8354 338.3111 0108204  76.0854 285.2342 15.06846048870480"
      },
      "geometry": {
        "type": "Point",
        "coordinates": [
          -176.72390618968885,
          -59.797250576068464
        ]
      }
    },
    {
      "type": "Feature",
      "properties": {
        "norad_id": 36442,
        "name": "COSMOS 2251 DEB",
        "group": "cosmos-2251-debris",
        "lat": -4.434308215039062,
        "lon": 21.11239745848904,
        "alt_km": 468.2665385545761,
        "timestamp": "2025-12-20T14:38:02.366357+00:00",
        "meta_object_name": "COSMOS 2251 DEB",
        "meta_object_id": "1993-036BAR",
        "meta_epoch": "2025-12-19T18:16:49.294560",
        "meta_mean_motion": 15.319666,
        "meta_eccentricity": 0.00081271,
        "meta_inclination": 73.95,
        "meta_ra_of_asc_node": 24.211,
        "meta_arg_of_pericenter": 320.5709,
        "meta_mean_anomaly": 39.4901,
        "meta_ephemeris_type": 0,
        "meta_classification_type": "U",
        "meta_norad_cat_id": 36442,
        "meta_element_set_no": 999,
        "meta_rev_at_epoch": 86023,
        "meta_bstar": 0.0032888621,
        "meta_mean_motion_dot": 0.00103009,
        "meta_mean_motion_ddot": 0,
        "tle_line1": "1 36442U 93036BAR 25353.76168165  .00103009  00000+0  32889-2 0  9992",
        "tle_line2": "2 36442  73.9500  24.2110 0008127 320.5709  39.4901 15.31966600860231"
      },
      "geometry": {
        "type": "Point",
        "coordinates": [
          21.11239745848904,
          -4.434308215039062
        ]
      }
    }
  ]
}